ONEWEB-0159             
1 48062U 21025W   25331.09179865  .00000155  00000+0  39042-3 0  9990
2 48062  87.9001   0.3720 0001583  89.5660 270.5650 13.13469499227072
ONEWEB-0164             
1 48063U 21025X   25331.07317486  .00000255  00000+0  66321-3 0  9993
2 48063  87.8996   0.3828 0001868  95.7159 264.4183 13.13469905227055
ONEWEB-0167             
1 48064U 21025Y   25331.02491813 -.00000126  00000+0 -37949-3 0  9999
2 48064  87.8990   0.4213 0002196  77.0328 283.1046 13.13467681227038
ONEWEB-0166             
1 48065U 21025Z   25331.04778034 -.00000135  00000+0 -40588-3 0  9998
2 48065  87.8996   0.3717 0001602  94.8682 265.2630 13.13470562227115
ONEWEB-0151             
1 48066U 21025AA  25331.04947411 -.00000111  00000+0 -33830-3 0  9992
2 48066  87.8998   0.3976 0001887  90.8276 269.3070 13.13470193227051
ONEWEB-0170             
1 48067U 21025AB  25331.05794384  .00000124  00000+0  30357-3 0  9996
2 48067  87.8993   0.4016 0002254  95.7341 264.4045 13.13470846227018
ONEWEB-0168             
1 48068U 21025AC  25331.04270166 -.00000203  00000+0 -58972-3 0  9996
2 48068  87.9000   0.3884 0001693  89.3899 270.7424 13.13470416227029
ONEWEB-0173             
1 48069U 21025AD  25330.65334915 -.00000332  00000+0 -94444-3 0  9993
2 48069  87.9001   0.4738 0001808  80.9691 279.1643 13.13470058227214
