<?xml version="1.0" encoding="UTF-8"?>
<ndm xmlns:xsi="http://www.w3.org/2001/XMLSchema-instance" xsi:noNamespaceSchemaLocation="https://sanaregistry.org/r/ndmxml_unqualified/ndmxml-2.0.0-master-2.0.xsd">
<omm id="CCSDS_OMM_VERS" version="2.0">
<header><CREATION_DATE/><ORIGINATOR/></header><body><segment><metadata><OBJECT_NAME>ONEWEB-0159</OBJECT_NAME><OBJECT_ID>2021-025W</OBJECT_ID><CENTER_NAME>EARTH</CENTER_NAME><REF_FRAME>TEME</REF_FRAME><TIME_SYSTEM>UTC</TIME_SYSTEM><MEAN_ELEMENT_THEORY>SGP4</MEAN_ELEMENT_THEORY></metadata><data><meanElements><EPOCH>2025-11-27T02:12:11.403360</EPOCH><MEAN_MOTION>13.13469499</MEAN_MOTION><ECCENTRICITY>.0001583</ECCENTRICITY><INCLINATION>87.9001</INCLINATION><RA_OF_ASC_NODE>0.3720</RA_OF_ASC_NODE><ARG_OF_PERICENTER>89.5660</ARG_OF_PERICENTER><MEAN_ANOMALY>270.5650</MEAN_ANOMALY></meanElements><tleParameters><EPHEMERIS_TYPE>0</EPHEMERIS_TYPE><CLASSIFICATION_TYPE>U</CLASSIFICATION_TYPE><NORAD_CAT_ID>48062</NORAD_CAT_ID><ELEMENT_SET_NO>999</ELEMENT_SET_NO><REV_AT_EPOCH>22707</REV_AT_EPOCH><BSTAR>.39042E-3</BSTAR><MEAN_MOTION_DOT>.155E-5</MEAN_MOTION_DOT><MEAN_MOTION_DDOT>0</MEAN_MOTION_DDOT></tleParameters></data></segment></body></omm>
<omm id="CCSDS_OMM_VERS" version="2.0">
<header><CREATION_DATE/><ORIGINATOR/></header><body><segment><metadata><OBJECT_NAME>ONEWEB-0164</OBJECT_NAME><OBJECT_ID>2021-025X</OBJECT_ID><CENTER_NAME>EARTH</CENTER_NAME><REF_FRAME>TEME</REF_FRAME><TIME_SYSTEM>UTC</TIME_SYSTEM><MEAN_ELEMENT_THEORY>SGP4</MEAN_ELEMENT_THEORY></metadata><data><meanElements><EPOCH>2025-11-27T01:45:22.307040</EPOCH><MEAN_MOTION>13.13469905</MEAN_MOTION><ECCENTRICITY>.0001869</ECCENTRICITY><INCLINATION>87.8996</INCLINATION><RA_OF_ASC_NODE>0.3828</RA_OF_ASC_NODE><ARG_OF_PERICENTER>95.7159</ARG_OF_PERICENTER><MEAN_ANOMALY>264.4183</MEAN_ANOMALY></meanElements><tleParameters><EPHEMERIS_TYPE>0</EPHEMERIS_TYPE><CLASSIFICATION_TYPE>U</CLASSIFICATION_TYPE><NORAD_CAT_ID>48063</NORAD_CAT_ID><ELEMENT_SET_NO>999</ELEMENT_SET_NO><REV_AT_EPOCH>22705</REV_AT_EPOCH><BSTAR>.66321E-3</BSTAR><MEAN_MOTION_DOT>.255E-5</MEAN_MOTION_DOT><MEAN_MOTION_DDOT>0</MEAN_MOTION_DDOT></tleParameters></data></segment></body></omm>
<omm id="CCSDS_OMM_VERS" version="2.0">
<header><CREATION_DATE/><ORIGINATOR/></header><body><segment><metadata><OBJECT_NAME>ONEWEB-0167</OBJECT_NAME><OBJECT_ID>2021-025Y</OBJECT_ID><CENTER_NAME>EARTH</CENTER_NAME><REF_FRAME>TEME</REF_FRAME><TIME_SYSTEM>UTC</TIME_SYSTEM><MEAN_ELEMENT_THEORY>SGP4</MEAN_ELEMENT_THEORY></metadata><data><meanElements><EPOCH>2025-11-27T00:35:52.925568</EPOCH><MEAN_MOTION>13.13467681</MEAN_MOTION><ECCENTRICITY>.0002196</ECCENTRICITY><INCLINATION>87.8990</INCLINATION><RA_OF_ASC_NODE>0.4213</RA_OF_ASC_NODE><ARG_OF_PERICENTER>77.0328</ARG_OF_PERICENTER><MEAN_ANOMALY>283.1046</MEAN_ANOMALY></meanElements><tleParameters><EPHEMERIS_TYPE>0</EPHEMERIS_TYPE><CLASSIFICATION_TYPE>U</CLASSIFICATION_TYPE><NORAD_CAT_ID>48064</NORAD_CAT_ID><ELEMENT_SET_NO>999</ELEMENT_SET_NO><REV_AT_EPOCH>22703</REV_AT_EPOCH><BSTAR>-.37949E-3</BSTAR><MEAN_MOTION_DOT>-.126E-5</MEAN_MOTION_DOT><MEAN_MOTION_DDOT>0</MEAN_MOTION_DDOT></tleParameters></data></segment></body></omm>
<omm id="CCSDS_OMM_VERS" version="2.0">
<header><CREATION_DATE/><ORIGINATOR/></header><body><segment><metadata><OBJECT_NAME>ONEWEB-0166</OBJECT_NAME><OBJECT_ID>2021-025Z</OBJECT_ID><CENTER_NAME>EARTH</CENTER_NAME><REF_FRAME>TEME</REF_FRAME><TIME_SYSTEM>UTC</TIME_SYSTEM><MEAN_ELEMENT_THEORY>SGP4</MEAN_ELEMENT_THEORY></metadata><data><meanElements><EPOCH>2025-11-27T01:08:48.221376</EPOCH><MEAN_MOTION>13.13470562</MEAN_MOTION><ECCENTRICITY>.0001602</ECCENTRICITY><INCLINATION>87.8996</INCLINATION><RA_OF_ASC_NODE>0.3717</RA_OF_ASC_NODE><ARG_OF_PERICENTER>94.8682</ARG_OF_PERICENTER><MEAN_ANOMALY>265.2630</MEAN_ANOMALY></meanElements><tleParameters><EPHEMERIS_TYPE>0</EPHEMERIS_TYPE><CLASSIFICATION_TYPE>U</CLASSIFICATION_TYPE><NORAD_CAT_ID>48065</NORAD_CAT_ID><ELEMENT_SET_NO>999</ELEMENT_SET_NO><REV_AT_EPOCH>22711</REV_AT_EPOCH><BSTAR>-.40588E-3</BSTAR><MEAN_MOTION_DOT>-.135E-5</MEAN_MOTION_DOT><MEAN_MOTION_DDOT>0</MEAN_MOTION_DDOT></tleParameters></data></segment></body></omm>
<omm id="CCSDS_OMM_VERS" version="2.0">
<header><CREATION_DATE/><ORIGINATOR/></header><body><segment><metadata><OBJECT_NAME>ONEWEB-0151</OBJECT_NAME><OBJECT_ID>2021-025AA</OBJECT_ID><CENTER_NAME>EARTH</CENTER_NAME><REF_FRAME>TEME</REF_FRAME><TIME_SYSTEM>UTC</TIME_SYSTEM><MEAN_ELEMENT_THEORY>SGP4</MEAN_ELEMENT_THEORY></metadata><data><meanElements><EPOCH>2025-11-27T01:11:14.563104</EPOCH><MEAN_MOTION>13.13470193</MEAN_MOTION><ECCENTRICITY>.0001888</ECCENTRICITY><INCLINATION>87.8998</INCLINATION><RA_OF_ASC_NODE>0.3976</RA_OF_ASC_NODE><ARG_OF_PERICENTER>90.8276</ARG_OF_PERICENTER><MEAN_ANOMALY>269.3070</MEAN_ANOMALY></meanElements><tleParameters><EPHEMERIS_TYPE>0</EPHEMERIS_TYPE><CLASSIFICATION_TYPE>U</CLASSIFICATION_TYPE><NORAD_CAT_ID>48066</NORAD_CAT_ID><ELEMENT_SET_NO>999</ELEMENT_SET_NO><REV_AT_EPOCH>22705</REV_AT_EPOCH><BSTAR>-.3383E-3</BSTAR><MEAN_MOTION_DOT>-.111E-5</MEAN_MOTION_DOT><MEAN_MOTION_DDOT>0</MEAN_MOTION_DDOT></tleParameters></data></segment></body></omm>
<omm id="CCSDS_OMM_VERS" version="2.0">
<header><CREATION_DATE/><ORIGINATOR/></header><body><segment><metadata><OBJECT_NAME>ONEWEB-0170</OBJECT_NAME><OBJECT_ID>2021-025AB</OBJECT_ID><CENTER_NAME>EARTH</CENTER_NAME><REF_FRAME>TEME</REF_FRAME><TIME_SYSTEM>UTC</TIME_SYSTEM><MEAN_ELEMENT_THEORY>SGP4</MEAN_ELEMENT_THEORY></metadata><data><meanElements><EPOCH>2025-11-27T01:23:26.346912</EPOCH><MEAN_MOTION>13.13470846</MEAN_MOTION><ECCENTRICITY>.0002254</ECCENTRICITY><INCLINATION>87.8993</INCLINATION><RA_OF_ASC_NODE>0.4016</RA_OF_ASC_NODE><ARG_OF_PERICENTER>95.7341</ARG_OF_PERICENTER><MEAN_ANOMALY>264.4045</MEAN_ANOMALY></meanElements><tleParameters><EPHEMERIS_TYPE>0</EPHEMERIS_TYPE><CLASSIFICATION_TYPE>U</CLASSIFICATION_TYPE><NORAD_CAT_ID>48067</NORAD_CAT_ID><ELEMENT_SET_NO>999</ELEMENT_SET_NO><REV_AT_EPOCH>22701</REV_AT_EPOCH><BSTAR>.30357E-3</BSTAR><MEAN_MOTION_DOT>.124E-5</MEAN_MOTION_DOT><MEAN_MOTION_DDOT>0</MEAN_MOTION_DDOT></tleParameters></data></segment></body></omm>
<omm id="CCSDS_OMM_VERS" version="2.0">
<header><CREATION_DATE/><ORIGINATOR/></header><body><segment><metadata><OBJECT_NAME>ONEWEB-0168</OBJECT_NAME><OBJECT_ID>2021-025AC</OBJECT_ID><CENTER_NAME>EARTH</CENTER_NAME><REF_FRAME>TEME</REF_FRAME><TIME_SYSTEM>UTC</TIME_SYSTEM><MEAN_ELEMENT_THEORY>SGP4</MEAN_ELEMENT_THEORY></metadata><data><meanElements><EPOCH>2025-11-27T01:01:29.423424</EPOCH><MEAN_MOTION>13.13470416</MEAN_MOTION><ECCENTRICITY>.0001693</ECCENTRICITY><INCLINATION>87.9000</INCLINATION><RA_OF_ASC_NODE>0.3884</RA_OF_ASC_NODE><ARG_OF_PERICENTER>89.3899</ARG_OF_PERICENTER><MEAN_ANOMALY>270.7424</MEAN_ANOMALY></meanElements><tleParameters><EPHEMERIS_TYPE>0</EPHEMERIS_TYPE><CLASSIFICATION_TYPE>U</CLASSIFICATION_TYPE><NORAD_CAT_ID>48068</NORAD_CAT_ID><ELEMENT_SET_NO>999</ELEMENT_SET_NO><REV_AT_EPOCH>22702</REV_AT_EPOCH><BSTAR>-.58972E-3</BSTAR><MEAN_MOTION_DOT>-.203E-5</MEAN_MOTION_DOT><MEAN_MOTION_DDOT>0</MEAN_MOTION_DDOT></tleParameters></data></segment></body></omm>
<omm id="CCSDS_OMM_VERS" version="2.0">
<header><CREATION_DATE/><ORIGINATOR/></header><body><segment><metadata><OBJECT_NAME>ONEWEB-0173</OBJECT_NAME><OBJECT_ID>2021-025AD</OBJECT_ID><CENTER_NAME>EARTH</CENTER_NAME><REF_FRAME>TEME</REF_FRAME><TIME_SYSTEM>UTC</TIME_SYSTEM><MEAN_ELEMENT_THEORY>SGP4</MEAN_ELEMENT_THEORY></metadata><data><meanElements><EPOCH>2025-11-26T15:40:49.366560</EPOCH><MEAN_MOTION>13.13470058</MEAN_MOTION><ECCENTRICITY>.00018088</ECCENTRICITY><INCLINATION>87.9001</INCLINATION><RA_OF_ASC_NODE>0.4738</RA_OF_ASC_NODE><ARG_OF_PERICENTER>80.9691</ARG_OF_PERICENTER><MEAN_ANOMALY>279.1643</MEAN_ANOMALY></meanElements><tleParameters><EPHEMERIS_TYPE>0</EPHEMERIS_TYPE><CLASSIFICATION_TYPE>U</CLASSIFICATION_TYPE><NORAD_CAT_ID>48069</NORAD_CAT_ID><ELEMENT_SET_NO>999</ELEMENT_SET_NO><REV_AT_EPOCH>22721</REV_AT_EPOCH><BSTAR>-.94444034E-3</BSTAR><MEAN_MOTION_DOT>-.332E-5</MEAN_MOTION_DOT><MEAN_MOTION_DDOT>0</MEAN_MOTION_DDOT></tleParameters></data></segment></body></omm>

</ndm>
